{
  "norad_id": 50839,
  "name": "STARLINK-3320",
  "history": [
    {
      "epoch": "2026-03-28T07:07:29.200800",
      "apogee_km": 540.5122605814304,
      "perigee_km": 538.926687877537,
      "latitude_deg": 3.509181096657521,
      "longitude_deg": 12.399111999897286,
      "semi_major_axis_km": 6917.856474229483,
      "eccentricity": 0.0001146,
      "inclination_deg": 53.2166,
      "raan_deg": 95.5895,
      "arg_perigee_deg": 73.3497,
      "mean_anomaly_deg": 286.7621,
      "mean_motion_rev_day": 15.08847824
    },
    {
      "epoch": "2026-03-29T05:22:53.200704",
      "apogee_km": 540.5508345885473,
      "perigee_km": 538.9029994035182,
      "latitude_deg": 38.32984535340564,
      "longitude_deg": 101.42577856010757,
      "semi_major_axis_km": 6917.8639169960325,
      "eccentricity": 0.0001191,
      "inclination_deg": 53.2157,
      "raan_deg": 91.4263,
      "arg_perigee_deg": 71.0101,
      "mean_anomaly_deg": 289.102,
      "mean_motion_rev_day": 15.08845389
    }
  ]
}